ORBCOMM FM115           
1 41186U 15081H   25090.23376234  .00001924  00000+0  41183-3 0  9996
2 41186  46.9983  50.2553 0000790 345.1195  14.9668 14.62292791496360
ORBCOMM FM108           
1 41187U 15081J   25090.39596492  .00001441  00000+0  34727-3 0  9994
2 41187  47.0038 114.2972 0003715 301.7457  58.3066 14.58007372495524
ORBCOMM FM117           
1 41188U 15081K   25090.08814198  .00001479  00000+0  35540-3 0  9992
2 41188  47.0000 114.5391 0004073 308.2928  51.7591 14.58003559495494
ORBCOMM FM116           
1 41189U 15081L   25090.55924292  .00002133  00000+0  49656-3 0  9993
2 41189  47.0009 202.1843 0000703   5.1221 354.9672 14.57966920494390
